0 FENGYUN 1C DEB
1 36200U 99025DTZ 13281.50133500  .00002305  00000-0  14231-2 0  2376
2 36200 099.4054 014.7734 0074742 311.6959 047.7832 14.05096201267608
0 FENGYUN 1C DEB
1 36200U 99025DTZ 13284.06480838  .00002267  00000-0  13994-2 0  2382
2 36200 099.4045 017.4284 0074850 304.3234 055.0892 14.05107596267960
0 FENGYUN 1C DEB
1 36200U 99025DTZ 13286.48584243  .00002342  00000-0  14441-2 0  2398
2 36200 099.4047 019.9381 0075148 297.7496 061.6115 14.05120682268304
0 FENGYUN 1C DEB
1 36200U 99025DTZ 13288.05238128  .00002446  00000-0  15069-2 0  2405
2 36200 099.4050 021.5622 0074995 293.7180 065.6224 14.05130416268525
0 FENGYUN 1C DEB
1 36200U 99025DTZ 13290.04614427  .00002632  00000-0  16195-2 0  2416
2 36200 099.4051 023.6264 0074565 287.2245 072.1434 14.05144696268806
0 FENGYUN 1C DEB
1 36200U 99025DTZ 13292.11108628  .00002878  00000-0  17674-2 0  2423
2 36200 099.4080 025.7681 0074713 279.6739 079.7130 14.05160980269094
0 FENGYUN 1C DEB
1 36200U 99025DTZ 13293.03672521  .00003101  00000-0  19003-2 0  2432
2 36200 099.4033 026.7238 0075786 277.9467 081.3640 14.05170745269221
0 FENGYUN 1C DEB
1 36200U 99025DTZ 13295.03042473  .00003377  00000-0  20668-2 0  2446
2 36200 099.4041 028.7931 0075293 272.4787 086.8168 14.05188375269504
